[{"OBJECT_NAME":"ONEWEB-0161","OBJECT_ID":"2021-025M","EPOCH":"2026-03-08T03:46:44.036832","MEAN_MOTION":13.1346917,"ECCENTRICITY":0.0001904,"INCLINATION":87.9038,"RA_OF_ASC_NODE":340.3181,"ARG_OF_PERICENTER":75.4361,"MEAN_ANOMALY":284.6979,"EPHEMERIS_TYPE":0,"CLASSIFICATION_TYPE":"U","NORAD_CAT_ID":48053,"ELEMENT_SET_NO":999,"REV_AT_EPOCH":24024,"BSTAR":-0.00036216,"MEAN_MOTION_DOT":-1.2e-6,"MEAN_MOTION_DDOT":0},{"OBJECT_NAME":"ONEWEB-0158","OBJECT_ID":"2021-025N","EPOCH":"2026-03-08T02:48:14.062752","MEAN_MOTION":13.1347003,"ECCENTRICITY":0.0001536,"INCLINATION":87.9047,"RA_OF_ASC_NODE":340.3163,"ARG_OF_PERICENTER":87.3915,"MEAN_ANOMALY":272.739,"EPHEMERIS_TYPE":0,"CLASSIFICATION_TYPE":"U","NORAD_CAT_ID":48054,"ELEMENT_SET_NO":999,"REV_AT_EPOCH":24036,"BSTAR":0.00060251,"MEAN_MOTION_DOT":2.33e-6,"MEAN_MOTION_DDOT":0},{"OBJECT_NAME":"ONEWEB-0157","OBJECT_ID":"2021-025P","EPOCH":"2026-03-08T03:24:47.882304","MEAN_MOTION":13.13469137,"ECCENTRICITY":0.0002109,"INCLINATION":87.9045,"RA_OF_ASC_NODE":340.3162,"ARG_OF_PERICENTER":74.962,"MEAN_ANOMALY":285.1742,"EPHEMERIS_TYPE":0,"CLASSIFICATION_TYPE":"U","NORAD_CAT_ID":48055,"ELEMENT_SET_NO":999,"REV_AT_EPOCH":24030,"BSTAR":0.00061712,"MEAN_MOTION_DOT":2.38e-6,"MEAN_MOTION_DDOT":0},{"OBJECT_NAME":"ONEWEB-0162","OBJECT_ID":"2021-025Q","EPOCH":"2026-03-07T17:41:59.133408","MEAN_MOTION":13.1347122,"ECCENTRICITY":0.00016551,"INCLINATION":87.9047,"RA_OF_ASC_NODE":340.4004,"ARG_OF_PERICENTER":72.943,"MEAN_ANOMALY":287.188,"EPHEMERIS_TYPE":0,"CLASSIFICATION_TYPE":"U","NORAD_CAT_ID":48056,"ELEMENT_SET_NO":999,"REV_AT_EPOCH":24022,"BSTAR":0.0007908129,"MEAN_MOTION_DOT":3.02e-6,"MEAN_MOTION_DDOT":0},{"OBJECT_NAME":"ONEWEB-0155","OBJECT_ID":"2021-025R","EPOCH":"2026-03-07T17:51:56.727648","MEAN_MOTION":13.1346961,"ECCENTRICITY":0.00019297,"INCLINATION":87.9038,"RA_OF_ASC_NODE":340.3986,"ARG_OF_PERICENTER":80.3371,"MEAN_ANOMALY":279.7976,"EPHEMERIS_TYPE":0,"CLASSIFICATION_TYPE":"U","NORAD_CAT_ID":48057,"ELEMENT_SET_NO":999,"REV_AT_EPOCH":24036,"BSTAR":0.0010815334,"MEAN_MOTION_DOT":4.08e-6,"MEAN_MOTION_DDOT":0},{"OBJECT_NAME":"ONEWEB-0149","OBJECT_ID":"2021-025S","EPOCH":"2026-03-08T03:32:06.369216","MEAN_MOTION":13.13469053,"ECCENTRICITY":0.0001687,"INCLINATION":87.9044,"RA_OF_ASC_NODE":340.3154,"ARG_OF_PERICENTER":70.0158,"MEAN_ANOMALY":290.1153,"EPHEMERIS_TYPE":0,"CLASSIFICATION_TYPE":"U","NORAD_CAT_ID":48058,"ELEMENT_SET_NO":999,"REV_AT_EPOCH":24022,"BSTAR":0.000142,"MEAN_MOTION_DOT":6.5e-7,"MEAN_MOTION_DDOT":0},{"OBJECT_NAME":"ONEWEB-0148","OBJECT_ID":"2021-025T","EPOCH":"2026-03-08T00:48:46.773216","MEAN_MOTION":13.1347143,"ECCENTRICITY":0.0001871,"INCLINATION":87.9037,"RA_OF_ASC_NODE":340.3524,"ARG_OF_PERICENTER":59.746,"MEAN_ANOMALY":300.3854,"EPHEMERIS_TYPE":0,"CLASSIFICATION_TYPE":"U","NORAD_CAT_ID":48059,"ELEMENT_SET_NO":999,"REV_AT_EPOCH":24033,"BSTAR":7.1142e-5,"MEAN_MOTION_DOT":3.9e-7,"MEAN_MOTION_DDOT":0},{"OBJECT_NAME":"ONEWEB-0160","OBJECT_ID":"2021-025U","EPOCH":"2026-03-08T03:02:51.249120","MEAN_MOTION":13.13470099,"ECCENTRICITY":0.000111,"INCLINATION":87.9034,"RA_OF_ASC_NODE":340.3306,"ARG_OF_PERICENTER":93.5605,"MEAN_ANOMALY":266.5651,"EPHEMERIS_TYPE":0,"CLASSIFICATION_TYPE":"U","NORAD_CAT_ID":48060,"ELEMENT_SET_NO":999,"REV_AT_EPOCH":24029,"BSTAR":0.0011141,"MEAN_MOTION_DOT":4.2e-6,"MEAN_MOTION_DDOT":0},{"OBJECT_NAME":"ONEWEB-0163","OBJECT_ID":"2021-025V","EPOCH":"2026-03-08T00:51:13.460544","MEAN_MOTION":13.13470484,"ECCENTRICITY":0.0002024,"INCLINATION":87.904,"RA_OF_ASC_NODE":340.3407,"ARG_OF_PERICENTER":76.4053,"MEAN_ANOMALY":283.7301,"EPHEMERIS_TYPE":0,"CLASSIFICATION_TYPE":"U","NORAD_CAT_ID":48061,"ELEMENT_SET_NO":999,"REV_AT_EPOCH":24040,"BSTAR":0.00046774,"MEAN_MOTION_DOT":1.84e-6,"MEAN_MOTION_DDOT":0},{"OBJECT_NAME":"ONEWEB-0159","OBJECT_ID":"2021-025W","EPOCH":"2026-03-07T19:09:56.314944","MEAN_MOTION":13.1346959,"ECCENTRICITY":0.00019361,"INCLINATION":87.9044,"RA_OF_ASC_NODE":340.3741,"ARG_OF_PERICENTER":72.8346,"MEAN_ANOMALY":287.2995,"EPHEMERIS_TYPE":0,"CLASSIFICATION_TYPE":"U","NORAD_CAT_ID":48062,"ELEMENT_SET_NO":999,"REV_AT_EPOCH":24029,"BSTAR":-0.00014825491,"MEAN_MOTION_DOT":-4.1e-7,"MEAN_MOTION_DDOT":0},{"OBJECT_NAME":"ONEWEB-0164","OBJECT_ID":"2021-025X","EPOCH":"2026-03-07T18:43:07.386240","MEAN_MOTION":13.13469385,"ECCENTRICITY":0.00016441,"INCLINATION":87.9049,"RA_OF_ASC_NODE":340.3843,"ARG_OF_PERICENTER":80.8068,"MEAN_ANOMALY":279.3248,"EPHEMERIS_TYPE":0,"CLASSIFICATION_TYPE":"U","NORAD_CAT_ID":48063,"ELEMENT_SET_NO":999,"REV_AT_EPOCH":24027,"BSTAR":-0.00077618625,"MEAN_MOTION_DOT":-2.71e-6,"MEAN_MOTION_DDOT":0},{"OBJECT_NAME":"ONEWEB-0167","OBJECT_ID":"2021-025Y","EPOCH":"2026-03-08T02:42:09.579168","MEAN_MOTION":13.13471047,"ECCENTRICITY":0.0002285,"INCLINATION":87.9038,"RA_OF_ASC_NODE":340.3377,"ARG_OF_PERICENTER":90.1778,"MEAN_ANOMALY":269.9613,"EPHEMERIS_TYPE":0,"CLASSIFICATION_TYPE":"U","NORAD_CAT_ID":48064,"ELEMENT_SET_NO":999,"REV_AT_EPOCH":24030,"BSTAR":0.00041179,"MEAN_MOTION_DOT":1.63e-6,"MEAN_MOTION_DDOT":0},{"OBJECT_NAME":"ONEWEB-0166","OBJECT_ID":"2021-025Z","EPOCH":"2026-03-08T03:15:02.638944","MEAN_MOTION":13.13469784,"ECCENTRICITY":0.0001792,"INCLINATION":87.9046,"RA_OF_ASC_NODE":340.2961,"ARG_OF_PERICENTER":72.055,"MEAN_ANOMALY":288.0775,"EPHEMERIS_TYPE":0,"CLASSIFICATION_TYPE":"U","NORAD_CAT_ID":48065,"ELEMENT_SET_NO":999,"REV_AT_EPOCH":24038,"BSTAR":0.0010698,"MEAN_MOTION_DOT":4.03e-6,"MEAN_MOTION_DDOT":0},{"OBJECT_NAME":"ONEWEB-0151","OBJECT_ID":"2021-025AA","EPOCH":"2026-03-08T03:17:29.449824","MEAN_MOTION":13.1346888,"ECCENTRICITY":0.0001817,"INCLINATION":87.9036,"RA_OF_ASC_NODE":340.3217,"ARG_OF_PERICENTER":81.548,"MEAN_ANOMALY":278.5855,"EPHEMERIS_TYPE":0,"CLASSIFICATION_TYPE":"U","NORAD_CAT_ID":48066,"ELEMENT_SET_NO":999,"REV_AT_EPOCH":24032,"BSTAR":0.00082514,"MEAN_MOTION_DOT":3.14e-6,"MEAN_MOTION_DDOT":0},{"OBJECT_NAME":"ONEWEB-0170","OBJECT_ID":"2021-025AB","EPOCH":"2026-03-08T03:29:40.156224","MEAN_MOTION":13.13468277,"ECCENTRICITY":0.0001511,"INCLINATION":87.9042,"RA_OF_ASC_NODE":340.3212,"ARG_OF_PERICENTER":95.972,"MEAN_ANOMALY":264.1581,"EPHEMERIS_TYPE":0,"CLASSIFICATION_TYPE":"U","NORAD_CAT_ID":48067,"ELEMENT_SET_NO":999,"REV_AT_EPOCH":24028,"BSTAR":-0.0002457,"MEAN_MOTION_DOT":-7.7e-7,"MEAN_MOTION_DDOT":0},{"OBJECT_NAME":"ONEWEB-0168","OBJECT_ID":"2021-025AC","EPOCH":"2026-03-08T03:07:43.944672","MEAN_MOTION":13.13470028,"ECCENTRICITY":0.0001861,"INCLINATION":87.9049,"RA_OF_ASC_NODE":340.3154,"ARG_OF_PERICENTER":77.334,"MEAN_ANOMALY":282.7997,"EPHEMERIS_TYPE":0,"CLASSIFICATION_TYPE":"U","NORAD_CAT_ID":48068,"ELEMENT_SET_NO":999,"REV_AT_EPOCH":24029,"BSTAR":0.00098011,"MEAN_MOTION_DOT":3.71e-6,"MEAN_MOTION_DDOT":0},{"OBJECT_NAME":"ONEWEB-0173","OBJECT_ID":"2021-025AD","EPOCH":"2026-03-08T02:55:33.119904","MEAN_MOTION":13.13469554,"ECCENTRICITY":0.000213,"INCLINATION":87.9043,"RA_OF_ASC_NODE":340.3243,"ARG_OF_PERICENTER":79.7788,"MEAN_ANOMALY":280.3582,"EPHEMERIS_TYPE":0,"CLASSIFICATION_TYPE":"U","NORAD_CAT_ID":48069,"ELEMENT_SET_NO":999,"REV_AT_EPOCH":24053,"BSTAR":0.00078602,"MEAN_MOTION_DOT":3.0e-6,"MEAN_MOTION_DDOT":0}]
