ONEWEB-0161             
1 48053U 21025M   26067.15745413 -.00000120  00000+0 -36216-3 0  9996
2 48053  87.9038 340.3181 0001904  75.4361 284.6979 13.13469170240249
ONEWEB-0158             
1 48054U 21025N   26067.11682943  .00000233  00000+0  60251-3 0  9990
2 48054  87.9047 340.3163 0001536  87.3915 272.7390 13.13470030240363
ONEWEB-0157             
1 48055U 21025P   26067.14222086  .00000238  00000+0  61712-3 0  9990
2 48055  87.9045 340.3162 0002109  74.9620 285.1742 13.13469137240302
ONEWEB-0162             
1 48056U 21025Q   26066.73748997  .00000302  00000+0  79081-3 0  9999
2 48056  87.9047 340.4004 0001655  72.9430 287.1880 13.13471220240225
ONEWEB-0155             
1 48057U 21025R   26066.74440657  .00000408  00000+0  10815-2 0  9999
2 48057  87.9038 340.3986 0001929  80.3371 279.7976 13.13469610240363
ONEWEB-0149             
1 48058U 21025S   26067.14729594  .00000065  00000+0  14200-3 0  9997
2 48058  87.9044 340.3154 0001687  70.0158 290.1153 13.13469053240228
ONEWEB-0148             
1 48059U 21025T   26067.03387469  .00000039  00000+0  71142-4 0  9997
2 48059  87.9037 340.3524 0001871  59.7460 300.3854 13.13471430240333
ONEWEB-0160             
1 48060U 21025U   26067.12698205  .00000420  00000+0  11141-2 0  9997
2 48060  87.9034 340.3306 0001110  93.5605 266.5651 13.13470099240296
ONEWEB-0163             
1 48061U 21025V   26067.03557246  .00000184  00000+0  46774-3 0  9995
2 48061  87.9040 340.3407 0002024  76.4053 283.7301 13.13470484240402
ONEWEB-0159             
1 48062U 21025W   26066.79856846 -.00000041  00000+0 -14825-3 0  9992
2 48062  87.9044 340.3741 0001936  72.8346 287.2995 13.13469590240295
ONEWEB-0164             
1 48063U 21025X   26066.77994660 -.00000271  00000+0 -77619-3 0  9993
2 48063  87.9049 340.3843 0001644  80.8068 279.3248 13.13469385240273
ONEWEB-0167             
1 48064U 21025Y   26067.11261087  .00000163  00000+0  41179-3 0  9993
2 48064  87.9038 340.3377 0002285  90.1778 269.9613 13.13471047240301
ONEWEB-0166             
1 48065U 21025Z   26067.13544721  .00000403  00000+0  10698-2 0  9993
2 48065  87.9046 340.2961 0001792  72.0550 288.0775 13.13469784240382
ONEWEB-0151             
1 48066U 21025AA  26067.13714641  .00000314  00000+0  82514-3 0  9992
2 48066  87.9036 340.3217 0001817  81.5480 278.5855 13.13468880240325
ONEWEB-0170             
1 48067U 21025AB  26067.14560366 -.00000077  00000+0 -24570-3 0  9993
2 48067  87.9042 340.3212 0001511  95.9720 264.1581 13.13468277240287
ONEWEB-0168             
1 48068U 21025AC  26067.13036973  .00000371  00000+0  98011-3 0  9991
2 48068  87.9049 340.3154 0001861  77.3340 282.7997 13.13470028240295
ONEWEB-0173             
1 48069U 21025AD  26067.12191111  .00000300  00000+0  78602-3 0  9993
2 48069  87.9043 340.3243 0002130  79.7788 280.3582 13.13469554240534
